ORBCOMM FM37            
1 33064U 08031E   25200.36895818  .00000896  00000+0  14564-3 0  9990
2 33064  48.4385 190.6310 0004757 158.5671 351.0785 14.79843094918811
ORBCOMM FM40            
1 33065U 08031F   25200.64032711  .00001414  00000+0  20268-3 0  9992
2 33065  48.4409 172.8309 0005941 172.5580 358.5651 14.82123772918979
VESSELSAT 1             
1 37840U 11058C   25200.55118817  .00000338  00000+0  39727-4 0  9997
2 37840  19.9612 258.0569 0013600 181.8809 178.1545 14.11358109711117
ORBCOMM FM109           
1 40086U 14040A   25200.45720000  .00000196  00000+0  78588-4 0  9999
2 40086  47.0015 223.8844 0000994 172.9498 187.1401 14.58206191585771
ORBCOMM FM107           
1 40087U 14040B   25200.48423934  .00000297  00000+0  10019-3 0  9995
2 40087  47.0034 224.7093 0000521 352.6831   7.4047 14.58281438585859
ORBCOMM FM106           
1 40088U 14040C   25200.59589648  .00000568  00000+0  12625-3 0  9999
2 40088  47.0612  43.6866 0017237 218.3038 141.6629 14.69494352588243
ORBCOMM FM111           
1 40089U 14040D   25200.55038611  .00001242  00000+0  16278-3 0  9993
2 40089  47.0014 249.7025 0030695 345.2576  14.7423 14.86418212595044
ORBCOMM FM104           
1 40090U 14040E   25200.57670057  .00000266  00000+0  96727-4 0  9996
2 40090  47.0043 258.2718 0016403 349.0954  10.9573 14.56678094585344
